ONEWEB-0018             
1 45434U 20020L   26124.19467749  .00000400  00000+0  10928-2 0  9991
2 45434  87.8923  29.8142 0002141  73.4087 286.7276 13.11416722296869
ONEWEB-0083             
1 45435U 20020M   26124.10835980 -.00006897  00000+0 -19498-1 0  9997
2 45435  87.8934  29.8220 0001818  77.2070 282.9261 13.11461605296898
ONEWEB-0095             
1 45436U 20020N   26124.17615382  .00000430  00000+0  11784-2 0  9993
2 45436  87.8933  29.8169 0001269  99.6857 260.4414 13.11421515296900
ONEWEB-0092             
1 45437U 20020P   26124.14612774 -.00000534  00000+0 -15293-2 0  9999
2 45437  87.8936  29.8211 0001693  88.9520 271.1803 13.11952547297019
ONEWEB-0085             
1 45438U 20020Q   26124.18435828 -.00002085  00000+0 -59200-2 0  9996
2 45438  87.8921  29.8173 0001918  78.9638 281.1705 13.11432792296904
ONEWEB-0096             
1 45439U 20020R   26124.18618788  .00000606  00000+0  16733-2 0  9994
2 45439  87.8932  29.8088 0001891  80.4750 279.6592 13.11418940296898
ONEWEB-0037             
1 45440U 20020S   26123.70216069 -.00000164  00000+0 -49435-3 0  9996
2 45440  87.8945  29.8819 0001739  81.2060 278.9265 13.11910158296864
ONEWEB-0042             
1 45441U 20020T   26124.17588079  .00000445  00000+0  12185-2 0  9993
2 45441  87.8933  29.8076 0001898  80.9542 279.1801 13.11419822296898
ONEWEB-0098             
1 45442U 20020U   26124.09548326  .00000267  00000+0  71646-3 0  9996
2 45442  87.8931  29.8339 0001790  76.2799 283.8528 13.11418494296861
ONEWEB-0055             
1 45443U 20020V   26124.15151792 -.00000428  00000+0 -12350-2 0  9998
2 45443  87.8929  29.8213 0001870  73.0141 287.1192 13.11919781296842
ONEWEB-0093             
1 45444U 20020W   26124.13038683 -.00000724  00000+0 -20792-2 0  9998
2 45444  87.8938  29.8171 0001915  87.3043 272.8304 13.11403971296907
ONEWEB-0029             
1 45445U 20020X   26123.99517838 -.00002887  00000+0 -82464-2 0  9992
2 45445  87.8924  29.8524 0001905  80.0324 280.1019 13.10897119296866
ONEWEB-0068             
1 45446U 20020Y   26124.13010536  .00000038  00000+0  72370-4 0  9994
2 45446  87.8933  29.8209 0002022  80.3832 279.7524 13.11415687296823
ONEWEB-0046             
1 45447U 20020Z   26124.12176455  .00000371  00000+0  10118-2 0  9997
2 45447  87.8932  29.8297 0001932  86.7886 273.3463 13.11416550296831
ONEWEB-0063             
1 45448U 20020AA  26124.15058017 -.00000503  00000+0 -14557-2 0  9994
2 45448  87.8937  29.8217 0001715  86.6854 273.4470 13.11418039296925
ONEWEB-0019             
1 45449U 20020AB  26124.18944708  .00000628  00000+0  17359-2 0  9998
2 45449  87.8925  29.8031 0001756  74.0340 286.0981 13.11417914296774
