[{"OBJECT_NAME":"ONEWEB-0018","OBJECT_ID":"2020-020L","EPOCH":"2026-05-04T04:40:20.135136","MEAN_MOTION":13.11416722,"ECCENTRICITY":0.0002141,"INCLINATION":87.8923,"RA_OF_ASC_NODE":29.8142,"ARG_OF_PERICENTER":73.4087,"MEAN_ANOMALY":286.7276,"EPHEMERIS_TYPE":0,"CLASSIFICATION_TYPE":"U","NORAD_CAT_ID":45434,"ELEMENT_SET_NO":999,"REV_AT_EPOCH":29686,"BSTAR":0.0010928,"MEAN_MOTION_DOT":4e-06,"MEAN_MOTION_DDOT":0.0},{"OBJECT_NAME":"ONEWEB-0083","OBJECT_ID":"2020-020M","EPOCH":"2026-05-04T02:36:02.286720","MEAN_MOTION":13.11461605,"ECCENTRICITY":0.0001818,"INCLINATION":87.8934,"RA_OF_ASC_NODE":29.822,"ARG_OF_PERICENTER":77.207,"MEAN_ANOMALY":282.9261,"EPHEMERIS_TYPE":0,"CLASSIFICATION_TYPE":"U","NORAD_CAT_ID":45435,"ELEMENT_SET_NO":999,"REV_AT_EPOCH":29689,"BSTAR":-0.019498,"MEAN_MOTION_DOT":-6.897e-05,"MEAN_MOTION_DDOT":0.0},{"OBJECT_NAME":"ONEWEB-0095","OBJECT_ID":"2020-020N","EPOCH":"2026-05-04T04:13:39.690048","MEAN_MOTION":13.11421515,"ECCENTRICITY":0.0001269,"INCLINATION":87.8933,"RA_OF_ASC_NODE":29.8169,"ARG_OF_PERICENTER":99.6857,"MEAN_ANOMALY":260.4414,"EPHEMERIS_TYPE":0,"CLASSIFICATION_TYPE":"U","NORAD_CAT_ID":45436,"ELEMENT_SET_NO":999,"REV_AT_EPOCH":29690,"BSTAR":0.0011784,"MEAN_MOTION_DOT":4.3e-06,"MEAN_MOTION_DDOT":0.0},{"OBJECT_NAME":"ONEWEB-0092","OBJECT_ID":"2020-020P","EPOCH":"2026-05-04T03:30:25.436736","MEAN_MOTION":13.11952547,"ECCENTRICITY":0.0001693,"INCLINATION":87.8936,"RA_OF_ASC_NODE":29.8211,"ARG_OF_PERICENTER":88.952,"MEAN_ANOMALY":271.1803,"EPHEMERIS_TYPE":0,"CLASSIFICATION_TYPE":"U","NORAD_CAT_ID":45437,"ELEMENT_SET_NO":999,"REV_AT_EPOCH":29701,"BSTAR":-0.0015293000000000001,"MEAN_MOTION_DOT":-5.34e-06,"MEAN_MOTION_DDOT":0.0},{"OBJECT_NAME":"ONEWEB-0085","OBJECT_ID":"2020-020Q","EPOCH":"2026-05-04T04:25:28.555392","MEAN_MOTION":13.11432792,"ECCENTRICITY":0.0001918,"INCLINATION":87.8921,"RA_OF_ASC_NODE":29.8173,"ARG_OF_PERICENTER":78.9638,"MEAN_ANOMALY":281.1705,"EPHEMERIS_TYPE":0,"CLASSIFICATION_TYPE":"U","NORAD_CAT_ID":45438,"ELEMENT_SET_NO":999,"REV_AT_EPOCH":29690,"BSTAR":-0.00592,"MEAN_MOTION_DOT":-2.085e-05,"MEAN_MOTION_DDOT":0.0},{"OBJECT_NAME":"ONEWEB-0096","OBJECT_ID":"2020-020R","EPOCH":"2026-05-04T04:28:06.632832","MEAN_MOTION":13.1141894,"ECCENTRICITY":0.0001891,"INCLINATION":87.8932,"RA_OF_ASC_NODE":29.8088,"ARG_OF_PERICENTER":80.475,"MEAN_ANOMALY":279.6592,"EPHEMERIS_TYPE":0,"CLASSIFICATION_TYPE":"U","NORAD_CAT_ID":45439,"ELEMENT_SET_NO":999,"REV_AT_EPOCH":29689,"BSTAR":0.0016733000000000002,"MEAN_MOTION_DOT":6.06e-06,"MEAN_MOTION_DDOT":0.0},{"OBJECT_NAME":"ONEWEB-0037","OBJECT_ID":"2020-020S","EPOCH":"2026-05-03T16:51:06.683616","MEAN_MOTION":13.11910158,"ECCENTRICITY":0.0001739,"INCLINATION":87.8945,"RA_OF_ASC_NODE":29.8819,"ARG_OF_PERICENTER":81.206,"MEAN_ANOMALY":278.9265,"EPHEMERIS_TYPE":0,"CLASSIFICATION_TYPE":"U","NORAD_CAT_ID":45440,"ELEMENT_SET_NO":999,"REV_AT_EPOCH":29686,"BSTAR":-0.0004943500000000001,"MEAN_MOTION_DOT":-1.64e-06,"MEAN_MOTION_DDOT":0.0},{"OBJECT_NAME":"ONEWEB-0042","OBJECT_ID":"2020-020T","EPOCH":"2026-05-04T04:13:16.100256","MEAN_MOTION":13.11419822,"ECCENTRICITY":0.0001898,"INCLINATION":87.8933,"RA_OF_ASC_NODE":29.8076,"ARG_OF_PERICENTER":80.9542,"MEAN_ANOMALY":279.1801,"EPHEMERIS_TYPE":0,"CLASSIFICATION_TYPE":"U","NORAD_CAT_ID":45441,"ELEMENT_SET_NO":999,"REV_AT_EPOCH":29689,"BSTAR":0.0012185,"MEAN_MOTION_DOT":4.45e-06,"MEAN_MOTION_DDOT":0.0},{"OBJECT_NAME":"ONEWEB-0098","OBJECT_ID":"2020-020U","EPOCH":"2026-05-04T02:17:29.753664","MEAN_MOTION":13.11418494,"ECCENTRICITY":0.000179,"INCLINATION":87.8931,"RA_OF_ASC_NODE":29.8339,"ARG_OF_PERICENTER":76.2799,"MEAN_ANOMALY":283.8528,"EPHEMERIS_TYPE":0,"CLASSIFICATION_TYPE":"U","NORAD_CAT_ID":45442,"ELEMENT_SET_NO":999,"REV_AT_EPOCH":29686,"BSTAR":0.00071646,"MEAN_MOTION_DOT":2.67e-06,"MEAN_MOTION_DDOT":0.0},{"OBJECT_NAME":"ONEWEB-0055","OBJECT_ID":"2020-020V","EPOCH":"2026-05-04T03:38:11.148288","MEAN_MOTION":13.11919781,"ECCENTRICITY":0.000187,"INCLINATION":87.8929,"RA_OF_ASC_NODE":29.8213,"ARG_OF_PERICENTER":73.0141,"MEAN_ANOMALY":287.1192,"EPHEMERIS_TYPE":0,"CLASSIFICATION_TYPE":"U","NORAD_CAT_ID":45443,"ELEMENT_SET_NO":999,"REV_AT_EPOCH":29684,"BSTAR":-0.001235,"MEAN_MOTION_DOT":-4.28e-06,"MEAN_MOTION_DDOT":0.0},{"OBJECT_NAME":"ONEWEB-0093","OBJECT_ID":"2020-020W","EPOCH":"2026-05-04T03:07:45.422112","MEAN_MOTION":13.11403971,"ECCENTRICITY":0.0001915,"INCLINATION":87.8938,"RA_OF_ASC_NODE":29.8171,"ARG_OF_PERICENTER":87.3043,"MEAN_ANOMALY":272.8304,"EPHEMERIS_TYPE":0,"CLASSIFICATION_TYPE":"U","NORAD_CAT_ID":45444,"ELEMENT_SET_NO":999,"REV_AT_EPOCH":29690,"BSTAR":-0.0020792,"MEAN_MOTION_DOT":-7.24e-06,"MEAN_MOTION_DDOT":0.0},{"OBJECT_NAME":"ONEWEB-0029","OBJECT_ID":"2020-020X","EPOCH":"2026-05-03T23:53:03.412032","MEAN_MOTION":13.10897119,"ECCENTRICITY":0.0001905,"INCLINATION":87.8924,"RA_OF_ASC_NODE":29.8524,"ARG_OF_PERICENTER":80.0324,"MEAN_ANOMALY":280.1019,"EPHEMERIS_TYPE":0,"CLASSIFICATION_TYPE":"U","NORAD_CAT_ID":45445,"ELEMENT_SET_NO":999,"REV_AT_EPOCH":29686,"BSTAR":-0.008246400000000001,"MEAN_MOTION_DOT":-2.887e-05,"MEAN_MOTION_DDOT":0.0},{"OBJECT_NAME":"ONEWEB-0068","OBJECT_ID":"2020-020Y","EPOCH":"2026-05-04T03:07:21.103104","MEAN_MOTION":13.11415687,"ECCENTRICITY":0.0002022,"INCLINATION":87.8933,"RA_OF_ASC_NODE":29.8209,"ARG_OF_PERICENTER":80.3832,"MEAN_ANOMALY":279.7524,"EPHEMERIS_TYPE":0,"CLASSIFICATION_TYPE":"U","NORAD_CAT_ID":45446,"ELEMENT_SET_NO":999,"REV_AT_EPOCH":29682,"BSTAR":7.237e-05,"MEAN_MOTION_DOT":3.8e-07,"MEAN_MOTION_DDOT":0.0},{"OBJECT_NAME":"ONEWEB-0046","OBJECT_ID":"2020-020Z","EPOCH":"2026-05-04T02:55:20.457120","MEAN_MOTION":13.1141655,"ECCENTRICITY":0.0001932,"INCLINATION":87.8932,"RA_OF_ASC_NODE":29.8297,"ARG_OF_PERICENTER":86.7886,"MEAN_ANOMALY":273.3463,"EPHEMERIS_TYPE":0,"CLASSIFICATION_TYPE":"U","NORAD_CAT_ID":45447,"ELEMENT_SET_NO":999,"REV_AT_EPOCH":29683,"BSTAR":0.0010118,"MEAN_MOTION_DOT":3.71e-06,"MEAN_MOTION_DDOT":0.0},{"OBJECT_NAME":"ONEWEB-0063","OBJECT_ID":"2020-020AA","EPOCH":"2026-05-04T03:36:50.126688","MEAN_MOTION":13.11418039,"ECCENTRICITY":0.0001715,"INCLINATION":87.8937,"RA_OF_ASC_NODE":29.8217,"ARG_OF_PERICENTER":86.6854,"MEAN_ANOMALY":273.447,"EPHEMERIS_TYPE":0,"CLASSIFICATION_TYPE":"U","NORAD_CAT_ID":45448,"ELEMENT_SET_NO":999,"REV_AT_EPOCH":29692,"BSTAR":-0.0014557,"MEAN_MOTION_DOT":-5.03e-06,"MEAN_MOTION_DDOT":0.0},{"OBJECT_NAME":"ONEWEB-0019","OBJECT_ID":"2020-020AB","EPOCH":"2026-05-04T04:32:48.227712","MEAN_MOTION":13.11417914,"ECCENTRICITY":0.0001756,"INCLINATION":87.8925,"RA_OF_ASC_NODE":29.8031,"ARG_OF_PERICENTER":74.034,"MEAN_ANOMALY":286.0981,"EPHEMERIS_TYPE":0,"CLASSIFICATION_TYPE":"U","NORAD_CAT_ID":45449,"ELEMENT_SET_NO":999,"REV_AT_EPOCH":29677,"BSTAR":0.0017359,"MEAN_MOTION_DOT":6.28e-06,"MEAN_MOTION_DDOT":0.0}]